NORAD_CAT_ID,OBJECT_NAME,OBJECT_TYPE,EPOCH,MEAN_MOTION,ECCENTRICITY,INCLINATION,RA_OF_ASC_NODE,ARG_OF_PERICENTER,MEAN_ANOMALY,BSTAR,MEAN_MOTION_DOT,MEAN_MOTION_DDOT,TLE_LINE0,TLE_LINE1,TLE_LINE2,SEMIMAJOR_AXIS,PERIOD,APOGEE,PERIGEE,DECAYED
49171.0,STARLINK-3107,PAYLOAD,2023-10-22 12:16:49,14.98278117,0.000269,70.0007,325.9734,257.6985,102.3873,-0.0012221,-0.00014625,0.0,0 STARLINK-3107,1 49171U 21082AT  23295.51168629 -.00014625  00000-0 -12221-2 0  9994,2 49171  70.0007 325.9734 0002690 257.6985 102.3873 14.98278117116943,6950.353,96.11,574.088,570.349,0.0
49171.0,STARLINK-3107,PAYLOAD,2023-10-23 04:18:09,14.98314793,0.0002864,69.9997,324.2895,269.7747,90.3084,-0.00022039,-2.721e-05,0.0,0 STARLINK-3107,1 49171U 21082AT  23296.17927947 -.00002721  00000-0 -22039-3 0  9996,2 49171  69.9997 324.2895 0002864 269.7747  90.3084 14.98314793117044,6950.24,96.108,574.095,570.114,0.0
49171.0,STARLINK-3107,PAYLOAD,2023-10-23 18:43:22,14.9832332,0.0002787,70.0011,322.7749,271.7422,88.3418,-0.00017933,-2.232e-05,0.0,0 STARLINK-3107,1 49171U 21082AT  23296.78012198 -.00002232  00000-0 -17933-3 0  9990,2 49171  70.0011 322.7749 0002787 271.7422  88.3418 14.98323320117136,6950.214,96.107,574.016,570.142,0.0
49171.0,STARLINK-3107,PAYLOAD,2023-10-24 10:44:43,14.98326918,0.0002361,70.0012,321.0928,267.8267,92.2621,0.00036026,4.208e-05,0.0,0 STARLINK-3107,1 49171U 21082AT  23297.44772710  .00004208  00000-0  36026-3 0  9994,2 49171  70.0012 321.0928 0002361 267.8267  92.2621 14.98326918117236,6950.202,96.107,573.708,570.426,0.0
49171.0,STARLINK-3107,PAYLOAD,2023-10-25 10:46:43,14.98348947,0.0002893,69.9994,318.5658,277.2467,82.8363,0.00065556,7.741e-05,0.0,0 STARLINK-3107,1 49171U 21082AT  23298.44911566  .00007741  00000-0  65556-3 0  9994,2 49171  69.9994 318.5658 0002893 277.2467  82.8363 14.98348947117380,6950.134,96.106,574.01,569.989,0.0
49171.0,STARLINK-3107,PAYLOAD,2023-10-26 10:48:43,14.98349808,0.0002897,69.999,316.0408,276.7354,83.3475,0.00024879,2.878e-05,0.0,0 STARLINK-3107,1 49171U 21082AT  23299.45050428  .00002878  00000-0  24879-3 0  9996,2 49171  69.9990 316.0408 0002897 276.7354  83.3475 14.98349808117539,6950.132,96.106,574.01,569.983,0.0
49171.0,STARLINK-3107,PAYLOAD,2023-10-26 18:49:24,14.98341523,0.0002679,69.9993,315.1999,278.6181,81.4675,7.1482e-05,7.6e-06,0.0,0 STARLINK-3107,1 49171U 21082AT  23299.78430570  .00000760  00000-0  71482-4 0  9993,2 49171  69.9993 315.1999 0002679 278.6181  81.4675 14.98341523117586,6950.157,96.106,573.884,570.16,0.0
49171.0,STARLINK-3107,PAYLOAD,2023-10-27 10:50:44,14.98341165,0.0002796,69.9979,313.516,277.0255,83.0586,-3.0718e-05,-4.6e-06,0.0,0 STARLINK-3107,1 49171U 21082AT  23300.45190273 -.00000460  00000-0 -30718-4 0  9999,2 49171  69.9979 313.5160 0002796 277.0255  83.0586 14.98341165117689,6950.158,96.106,573.967,570.08,0.0
49171.0,STARLINK-3107,PAYLOAD,2023-10-27 18:51:24,14.98336926,0.0002735,69.998,312.6743,277.775,82.3098,-7.352e-05,-9.7e-06,0.0,0 STARLINK-3107,1 49171U 21082AT  23300.78570437 -.00000970  00000-0 -73520-4 0  9993,2 49171  69.9980 312.6743 0002735 277.7750  82.3098 14.98336926117733,6950.171,96.107,573.937,570.136,0.0
49171.0,STARLINK-3107,PAYLOAD,2023-10-28 10:52:45,14.98332582,0.0002853,69.9978,310.9897,272.7143,87.3689,-5.8577e-05,-7.92e-06,0.0,0 STARLINK-3107,1 49171U 21082AT  23301.45330480 -.00000792  00000-0 -58577-4 0  9997,2 49171  69.9978 310.9897 0002853 272.7143  87.3689 14.98332582117839,6950.185,96.107,574.033,570.067,0.0
49171.0,STARLINK-3107,PAYLOAD,2023-10-29 04:30:13,14.98335214,0.0002876,69.9978,309.138,272.1124,87.9706,7.6072e-05,8.15e-06,0.0,0 STARLINK-3107,1 49171U 21082AT  23302.18765918  .00000815  00000-0  76072-4 0  9990,2 49171  69.9978 309.1380 0002876 272.1124  87.9706 14.98335214117947,6950.177,96.107,574.041,570.043,0.0
49171.0,STARLINK-3107,PAYLOAD,2023-10-29 10:54:45,14.98338235,0.0002744,69.998,308.4649,267.1276,92.957,0.00014254,1.608e-05,0.0,0 STARLINK-3107,1 49171U 21082AT  23302.45469521  .00001608  00000-0  14254-3 0  9995,2 49171  69.9980 308.4649 0002744 267.1276  92.9570 14.98338235117981,6950.167,96.106,573.94,570.125,0.0
49171.0,STARLINK-3107,PAYLOAD,2023-10-29 17:19:18,14.98327746,0.0002467,69.999,307.7922,272.1635,87.9242,6.0333e-05,6.27e-06,0.0,0 STARLINK-3107,1 49171U 21082AT  23302.72174445  .00000627  00000-0  60333-4 0  9993,2 49171  69.9990 307.7922 0002467 272.1635  87.9242 14.98327746118026,6950.2,96.107,573.779,570.35,0.0
49171.0,STARLINK-3107,PAYLOAD,2023-10-30 17:21:18,14.98358088,0.0002891,69.9986,305.2661,277.5587,82.5243,-0.00053499,-6.475e-05,0.0,0 STARLINK-3107,1 49171U 21082AT  23303.72313542 -.00006475  00000-0 -53499-3 0  9990,2 49171  69.9986 305.2661 0002891 277.5587  82.5243 14.98358088118171,6950.106,96.105,573.98,569.962,0.0
49171.0,STARLINK-3107,PAYLOAD,2023-10-31 04:34:16,14.98328509,0.0002813,69.9983,304.088,269.714,90.3696,-1.9864e-05,-3.3e-06,0.0,0 STARLINK-3107,1 49171U 21082AT  23304.19046643 -.00000330  00000-0 -19864-4 0  9990,2 49171  69.9983 304.0880 0002813 269.7140  90.3696 14.98328509118242,6950.198,96.107,574.018,570.107,0.0
49171.0,STARLINK-3107,PAYLOAD,2023-10-31 09:22:40,14.98326563,0.0002765,69.9987,303.582,269.2535,90.8307,2.288e-05,1.8e-06,0.0,0 STARLINK-3107,1 49171U 21082AT  23304.39074695  .00000180  00000-0  22880-4 0  9993,2 49171  69.9987 303.5820 0002765 269.2535  90.8307 14.98326563118278,6950.204,96.107,573.99,570.147,0.0
49171.0,STARLINK-3107,PAYLOAD,2023-10-31 17:23:19,14.98365063,0.0002371,70.0004,302.7401,279.3142,80.7749,-0.00064512,-7.789e-05,0.0,0 STARLINK-3107,1 49171U 21082AT  23304.72453526 -.00007789  00000-0 -64512-3 0  9995,2 49171  70.0004 302.7401 0002371 279.3142  80.7749 14.98365063118328,6950.084,96.105,573.597,570.302,0.0
49171.0,STARLINK-3107,PAYLOAD,2023-11-01 04:36:17,14.98320052,0.00023,70.0004,301.5625,243.5404,116.5519,5.5654e-05,5.71e-06,0.0,0 STARLINK-3107,1 49171U 21082AT  23305.19186968  .00000571  00000-0  55654-4 0  9998,2 49171  70.0004 301.5625 0002300 243.5404 116.5519 14.98320052118398,6950.224,96.108,573.687,570.49,0.0
49171.0,STARLINK-3107,PAYLOAD,2023-11-01 09:24:39,14.98357511,0.0002916,70.0005,301.0572,261.9074,98.1754,0.00015138,1.715e-05,0.0,0 STARLINK-3107,1 49171U 21082AT  23305.39212267  .00001715  00000-0  15138-3 0  9995,2 49171  70.0005 301.0572 0002916 261.9074  98.1754 14.98357511118425,6950.108,96.105,573.999,569.946,0.0
49171.0,STARLINK-3107,PAYLOAD,2023-11-01 17:25:25,14.98285477,0.0002505,70.0008,300.2154,271.2831,88.8041,-0.0006296,-7.588e-05,0.0,0 STARLINK-3107,1 49171U 21082AT  23305.72598425 -.00007588  00000-0 -62960-3 0  9996,2 49171  70.0008 300.2154 0002505 271.2831  88.8041 14.98285477118475,6950.331,96.11,573.937,570.455,0.0
49171.0,STARLINK-3107,PAYLOAD,2023-11-02 04:38:19,14.98302356,0.0002231,70.0001,299.0371,254.7343,105.357,-1.9967e-05,-3.31e-06,0.0,0 STARLINK-3107,1 49171U 21082AT  23306.19328270 -.00000331  00000-0 -19967-4 0  9996,2 49171  70.0001 299.0371 0002231 254.7343 105.3570 14.98302356118540,6950.278,96.109,573.694,570.593,0.0
49171.0,STARLINK-3107,PAYLOAD,2023-11-02 09:26:42,14.9830719,0.0002328,70.0002,298.5321,270.897,89.1923,0.00041368,4.843e-05,0.0,0 STARLINK-3107,1 49171U 21082AT  23306.39355228  .00004843  00000-0  41368-3 0  9990,2 49171  70.0002 298.5321 0002328 270.8970  89.1923 14.98307190118577,6950.263,96.108,573.746,570.51,0.0
49171.0,STARLINK-3107,PAYLOAD,2023-11-02 22:15:46,14.9833152,0.0002889,70.0,297.1856,268.3214,91.7614,-2.1116e-05,-3.45e-06,0.0,0 STARLINK-3107,1 49171U 21082AT  23306.92762417 -.00000345  00000-0 -21116-4 0  9996,2 49171  70.0000 297.1856 0002889 268.3214  91.7614 14.98331520118657,6950.188,96.107,574.061,570.045,0.0
49171.0,STARLINK-3107,PAYLOAD,2023-11-03 04:40:18,14.98332689,0.0002547,69.9995,296.5122,268.7077,91.3791,-2.5167e-05,-3.93e-06,0.0,0 STARLINK-3107,1 49171U 21082AT  23307.19466369 -.00000393  00000-0 -25167-4 0  9996,2 49171  69.9995 296.5122 0002547 268.7077  91.3791 14.98332689118691,6950.185,96.107,573.82,570.279,0.0
49171.0,STARLINK-3107,PAYLOAD,2023-11-03 09:28:42,14.98334399,0.0002843,69.9987,296.0071,269.0398,91.0435,2.9277e-05,2.56e-06,0.0,0 STARLINK-3107,1 49171U 21082AT  23307.39494080  .00000256  00000-0  29277-4 0  9991,2 49171  69.9987 296.0071 0002843 269.0398  91.0435 14.98334399118725,6950.179,96.107,574.02,570.068,0.0
49171.0,STARLINK-3107,PAYLOAD,2023-11-04 04:42:20,14.98328072,0.000278,69.9989,293.9873,270.753,89.331,2.3614e-05,1.89e-06,0.0,0 STARLINK-3107,1 49171U 21082AT  23308.19606508  .00000189  00000-0  23614-4 0  9994,2 49171  69.9989 293.9873 0002780 270.7530  89.3310 14.98328072118846,6950.199,96.107,573.996,570.132,0.0
49171.0,STARLINK-3107,PAYLOAD,2023-11-04 09:30:43,14.98330099,0.0002743,69.9988,293.4835,263.9865,96.0982,0.00011526,1.283e-05,0.0,0 STARLINK-3107,1 49171U 21082AT  23308.39634157  .00001283  00000-0  11526-3 0  9991,2 49171  69.9988 293.4835 0002743 263.9865  96.0982 14.98330099118877,6950.193,96.107,573.964,570.151,0.0
49171.0,STARLINK-3107,PAYLOAD,2023-11-04 15:55:16,14.98313121,0.0002731,69.9988,292.8102,274.7508,85.3339,0.00037238,4.351e-05,0.0,0 STARLINK-3107,1 49171U 21082AT  23308.66338934  .00004351  00000-0  37238-3 0  9992,2 49171  69.9988 292.8102 0002731 274.7508  85.3339 14.98313121118917,6950.245,96.108,574.008,570.212,0.0
49171.0,STARLINK-3107,PAYLOAD,2023-11-05 04:44:20,14.98346342,0.0002648,69.9987,291.4624,271.4681,88.6175,-0.00011087,-1.416e-05,0.0,0 STARLINK-3107,1 49171U 21082AT  23309.19745505 -.00001416  00000-0 -11087-3 0  9992,2 49171  69.9987 291.4624 0002648 271.4681  88.6175 14.98346342118996,6950.142,96.106,573.848,570.167,0.0
49171.0,STARLINK-3107,PAYLOAD,2023-11-05 09:32:44,14.98339002,0.0002724,69.9987,290.9572,262.1584,97.9266,0.0001508,1.707e-05,0.0,0 STARLINK-3107,1 49171U 21082AT  23309.39773342  .00001707  00000-0  15080-3 0  9992,2 49171  69.9987 290.9572 0002724 262.1584  97.9266 14.98339002119020,6950.165,96.106,573.923,570.137,0.0
